      2.10          N: GNSS NAV DATA                        RINEX VERSION / TYPE
fic2rin                                 03/07/2022 00:17:28 PGM / RUN BY / DATE
                                                            END OF HEADER
12 22  3  6  8  0  0.0-1.806705258787e-04-5.684341886081e-12 0.000000000000e+00
    1.400000000000e+01 3.568750000000e+01 4.540189117101e-09-1.733891052322e+00
    1.950189471245e-06 8.724383311346e-03 3.458932042122e-06 5.153588129044e+03
    2.880000000000e+04 1.769512891769e-07 1.962910156413e+00 8.195638656616e-08
    9.697801010167e-01 3.163750000000e+02 1.255567466145e+00-8.217485148383e-09
    7.428880871279e-11 1.000000000000e+00 2.200000000000e+03 0.000000000000e+00
    2.400000000000e+00 0.000000000000e+00-1.257285475731e-08 1.400000000000e+01
    2.160000000000e+04 4.000000000000e+00
10 22  3  6  8  0  0.0-3.386745229363e-04-1.114131009672e-11 0.000000000000e+00
    6.000000000000e+01 1.553125000000e+01 4.723411034743e-09-2.458342914776e+00
    7.022172212601e-07 7.530630100518e-03 4.613772034645e-06 5.153674261093e+03
    2.880000000000e+04 1.043081283569e-07-1.252860944813e+00-1.210719347000e-07
    9.723072510369e-01 2.974687500000e+02-2.503638997105e+00-8.196769999800e-09
    2.717970357232e-10 1.000000000000e+00 2.200000000000e+03 0.000000000000e+00
    2.400000000000e+00 0.000000000000e+00 2.328306436539e-09 6.000000000000e+01
    2.160000000000e+04 4.000000000000e+00
 9 22  3  6  8  0  0.0-3.511975519359e-04 1.932676241267e-12 0.000000000000e+00
    8.600000000000e+01-5.743750000000e+01 4.838772982889e-09 2.212128825188e+00
   -2.948567271233e-06 2.199961454608e-03 8.026137948036e-06 5.153609209061e+03
    2.880000000000e+04 6.705522537231e-08-2.217377936177e-01-4.656612873077e-08
    9.545597608798e-01 2.161875000000e+02 1.879957676195e+00-8.208199047294e-09
   -5.046638784191e-10 1.000000000000e+00 2.200000000000e+03 0.000000000000e+00
    2.400000000000e+00 0.000000000000e+00 1.396983861923e-09 8.600000000000e+01
    2.160000000000e+04 4.000000000000e+00
21 22  3  6  8  0  0.0 1.590149477124e-04 5.684341886081e-13 0.000000000000e+00
    1.500000000000e+01 6.031250000000e+00 4.281606917543e-09 1.945112735399e+00
    3.296881914139e-07 2.456872852053e-02 1.088343560696e-05 5.153579067230e+03
    2.880000000000e+04 3.334134817123e-07-2.376651477257e+00 1.061707735062e-07
    9.596766079828e-01 1.638437500000e+02-9.916230230220e-01-7.615674366263e-09
    5.928818387655e-11 1.000000000000e+00 2.200000000000e+03 0.000000000000e+00
    2.400000000000e+00 0.000000000000e+00-1.024454832077e-08 1.500000000000e+01
    2.160000000000e+04 4.000000000000e+00
27 22  3  6  8  0  0.0 1.442558132112e-04 1.364242052659e-11 0.000000000000e+00
    2.700000000000e+01-7.043750000000e+01 4.224461680071e-09 1.801006913293e+00
   -3.682449460030e-06 1.034525455907e-02 7.873401045799e-06 5.153653186798e+03
    2.880000000000e+04-2.272427082062e-07 2.937844960463e+00 8.568167686462e-08
    9.734433195701e-01 2.349062500000e+02 6.464025555239e-01-8.101051727036e-09
   -3.539433145883e-10 1.000000000000e+00 2.200000000000e+03 0.000000000000e+00
    2.400000000000e+00 0.000000000000e+00 1.396983861923e-09 2.700000000000e+01
    2.160000000000e+04 4.000000000000e+00
31 22  3  6  8  0  0.0-1.676697283983e-04-1.705302565824e-12 0.000000000000e+00
    6.500000000000e+01 6.675000000000e+01 4.453399787691e-09-1.543195897583e+00
    3.349035978317e-06 1.044243061915e-02 1.033022999763e-05 5.153701520920e+03
    2.880000000000e+04 5.774199962616e-08 8.678909889033e-01-1.676380634308e-07
    9.552625145409e-01 1.786562500000e+02 3.801277511952e-01-7.912472443380e-09
    1.778645516296e-10 1.000000000000e+00 2.200000000000e+03 0.000000000000e+00
    2.400000000000e+00 0.000000000000e+00-1.350417733192e-08 6.500000000000e+01
    2.160000000000e+04 4.000000000000e+00
30 22  3  6  8  0  0.0-5.171457305551e-04-2.160049916711e-12 0.000000000000e+00
    6.600000000000e+01 5.946875000000e+01 4.815557730166e-09-1.039997064509e+00
    2.935528755188e-06 5.589550826699e-03 1.126714050770e-05 5.153576681137e+03
    2.880000000000e+04 1.490116119385e-07 8.625672544627e-01-8.195638656616e-08
    9.362061969288e-01 1.481875000000e+02-2.736309753919e+00-8.158554122241e-09
    2.500104139373e-11 1.000000000000e+00 2.200000000000e+03 0.000000000000e+00
    2.400000000000e+00 0.000000000000e+00 3.725290298462e-09 6.600000000000e+01
    2.160000000000e+04 4.000000000000e+00
24 22  3  6  8  0  0.0 2.703783102334e-04-2.955857780762e-12 0.000000000000e+00
    7.600000000000e+01 3.903125000000e+01 5.063425197698e-09-1.224602214169e-01
    2.149492502213e-06 1.236119447276e-02 1.082196831703e-05 5.153699279785e+03
    2.880000000000e+04 2.980232238770e-08 7.666608497017e-01 1.825392246246e-07
    9.346008418307e-01 1.555937500000e+02 8.104517019722e-01-8.464638300447e-09
   -1.071473202588e-11 1.000000000000e+00 2.200000000000e+03 0.000000000000e+00
    2.400000000000e+00 0.000000000000e+00 2.328306436539e-09 7.600000000000e+01
    2.160000000000e+04 4.000000000000e+00
22 22  3  6  8  0  0.0 2.232566475868e-04 5.798028723802e-12 0.000000000000e+00
    7.600000000000e+01-5.859375000000e+01 4.528402911872e-09 1.633332050196e+00
   -3.296881914139e-06 1.302091265097e-02 9.441748261452e-06 5.153666950226e+03
    2.880000000000e+04-1.918524503708e-07-1.203424646324e-01-2.793967723846e-07
    9.617414320024e-01 2.018750000000e+02-1.869479762445e+00-8.048192382375e-09
   -4.543046378974e-10 1.000000000000e+00 2.200000000000e+03 0.000000000000e+00
    3.400000000000e+00 0.000000000000e+00-9.778887033463e-09 7.600000000000e+01
    2.160000000000e+04 4.000000000000e+00
19 22  3  6  8  0  0.0 1.273560337722e-04 5.002220859751e-12 0.000000000000e+00
    4.700000000000e+01-7.103125000000e+01 3.996952203388e-09-2.123332816718e+00
   -3.315508365631e-06 9.003747021779e-03 7.988885045052e-06 5.153688367844e+03
    2.880000000000e+04 2.607703208923e-08 3.045253975554e+00 1.825392246246e-07
    9.786891565489e-01 2.311562500000e+02 2.015494777493e+00-7.845326789351e-09
   -2.546534644818e-10 1.000000000000e+00 2.200000000000e+03 0.000000000000e+00
    2.400000000000e+00 0.000000000000e+00-1.583248376846e-08 4.700000000000e+01
    2.160000000000e+04 4.000000000000e+00
26 22  3  6  8  0  0.0 1.885425299406e-04 3.069544618484e-12 0.000000000000e+00
    7.300000000000e+01 4.856250000000e+01 5.237718171986e-09-2.656101550022e+00
    2.518296241760e-06 6.900344160385e-03 3.455206751823e-06 5.153708871841e+03
    2.880000000000e+04 1.490116119385e-08 1.838533390890e+00-1.862645149231e-08
    9.380472076486e-01 3.032812500000e+02 3.794593497765e-01-8.569285516567e-09
    1.921508609975e-10 1.000000000000e+00 2.200000000000e+03 0.000000000000e+00
    2.400000000000e+00 0.000000000000e+00 6.984919309616e-09 7.300000000000e+01
    2.160000000000e+04 4.000000000000e+00
20 22  3  6  8  0  0.0 5.164234898984e-04-1.136868377216e-13 0.000000000000e+00
    5.600000000000e+01 2.953125000000e+01 5.434869241262e-09 5.784035206683e-01
    1.566484570503e-06 5.083073046990e-03 5.457550287247e-06 5.153755819321e+03
    2.880000000000e+04 6.705522537231e-08-1.405172784984e+00 5.587935447693e-09
    9.416893221458e-01 2.657812500000e+02-3.137296976052e+00-8.580000248593e-09
    3.350139546759e-10 1.000000000000e+00 2.200000000000e+03 0.000000000000e+00
    2.400000000000e+00 0.000000000000e+00-8.381903171539e-09 5.600000000000e+01
    2.160000000000e+04 4.000000000000e+00
13 22  3  6  8  0  0.0 2.722339704633e-04 6.366462912410e-12 0.000000000000e+00
    4.500000000000e+01-5.700000000000e+01 4.479472302287e-09 1.286990781178e+00
   -2.877786755562e-06 5.810651229694e-03 9.309500455856e-06 5.153675817490e+03
    2.880000000000e+04-9.872019290924e-08-6.865161627824e-02 3.725290298462e-08
    9.690539582213e-01 2.064062500000e+02 9.507513433182e-01-8.063193007211e-09
   -4.832344143673e-10 1.000000000000e+00 2.200000000000e+03 0.000000000000e+00
    2.400000000000e+00 0.000000000000e+00-1.117587089539e-08 4.500000000000e+01
    2.160000000000e+04 4.000000000000e+00
25 22  3  6  8  0  0.0 2.944790758193e-04 5.229594535194e-12 0.000000000000e+00
    4.500000000000e+01 3.975000000000e+01 4.723411034743e-09-2.001610204448e+00
    2.108514308929e-06 1.054599985946e-02 3.537163138390e-06 5.153702653885e+03
    2.880000000000e+04 1.247972249985e-07 1.885914898051e+00-7.636845111847e-08
    9.572080653866e-01 3.084375000000e+02 9.881511058770e-01-8.259272603284e-09
    1.560779298437e-10 1.000000000000e+00 2.200000000000e+03 0.000000000000e+00
    2.400000000000e+00 0.000000000000e+00 5.587935447693e-09 4.500000000000e+01
    2.160000000000e+04 4.000000000000e+00
29 22  3  6  8  0  0.0-4.880186170340e-04-4.547473508865e-12 0.000000000000e+00
    9.900000000000e+01-6.828125000000e+01 3.911948662650e-09 1.933649531693e+00
   -3.529712557793e-06 1.885603764094e-03 8.165836334229e-06 5.153745391846e+03
    2.880000000000e+04-1.862645149231e-09 3.013459464077e+00 2.421438694000e-08
    9.819315301439e-01 2.334062500000e+02 2.243208434932e+00-7.834969215059e-09
   -2.689397738497e-10 1.000000000000e+00 2.200000000000e+03 0.000000000000e+00
    3.400000000000e+00 0.000000000000e+00-1.024454832077e-08 9.900000000000e+01
    2.160000000000e+04 4.000000000000e+00
15 22  3  6  8  0  0.0-7.893051952124e-05 2.955857780762e-12 0.000000000000e+00
    1.080000000000e+02-6.250000000000e+01 5.631663152804e-09 8.412451429969e-01
   -3.023073077202e-06 1.394309021998e-02 7.173046469688e-06 5.153746303558e+03
    2.880000000000e+04-1.471489667892e-07-3.282430896022e-01 7.078051567078e-08
    9.303605810926e-01 2.303750000000e+02 1.078883306906e+00-8.833582239872e-09
   -5.239503960657e-10 1.000000000000e+00 2.200000000000e+03 0.000000000000e+00
    2.400000000000e+00 0.000000000000e+00-1.071020960808e-08 1.080000000000e+02
    2.160000000000e+04 4.000000000000e+00
